GLOBALSTAR M075         
1 37192U 10054E   25225.64068350 -.00000090  00000+0  79229-4 0  9992
2 37192  51.9976   6.6043 0000791  96.3493 276.1885 12.62266629683108
GLOBALSTAR M073         
1 37193U 10054F   25225.59227024 -.00000087  00000+0  92718-4 0  9996
2 37193  52.0057 280.6168 0000584 107.9203  44.8580 12.62261790685086
GLOBALSTAR M083         
1 37739U 11033A   25225.33752420 -.00000106  00000+0 -13095-4 0  9999
2 37739  51.9840 230.0453 0000284  63.9046 309.1063 12.62275009654075
GLOBALSTAR M088         
1 37740U 11033B   25225.50406256 -.00000079  00000+0  13760-3 0  9999
2 37740  52.0210 135.2172 0000502  44.1625 126.8164 12.62267107649633
GLOBALSTAR M091         
1 37741U 11033C   25225.43796696 -.00000094  00000+0  56848-4 0  9994
2 37741  51.9994  98.8369 0000808  46.1387 125.3778 12.62269689650419
GLOBALSTAR M085         
1 37742U 11033D   25225.26628856 -.00000106  00000+0 -14906-4 0  9992
2 37742  52.0132  50.3817 0000874  65.4287 105.7477 12.62264052650904
GLOBALSTAR M081         
1 37743U 11033E   25225.49792350 -.00000101  00000+0  15685-4 0  9998
2 37743  51.9963  52.4650 0001008  75.3982 307.4820 12.62267582651089
GLOBALSTAR M089         
1 37744U 11033F   25225.54920569 -.00000110  00000+0 -33184-4 0  9995
2 37744  51.9953   6.5251 0000925 113.2244 323.8270 12.62265633651936
